Feb 2nd 2016
1 39444U 13066AE  16033.89600488 +.00000808 +00000-0 +10811-3 0  9996
2 39444 097.7007 092.8874 0060613 102.8610 257.9383 14.80826475116963

Feb 4th 2016
1 39444U 13066AE  16035.38257241  .00000865  00000-0  11531-3 0  9990
2 39444  97.7004  94.3150 0060634  98.1157 262.6940 14.80829622117779

Feb 10th 2016
1 39444U 13066AE  16041.86935662 +.00001155 +00000-0 +15169-3 0  9994
2 39444 097.6991 100.5439 0060542 077.4170 283.3805 14.80846882118145